{
  "norad_id": 65586,
  "name": "PROGRESS-MS 32",
  "history": [
    {
      "epoch": "2026-03-28T20:59:21.130368Z",
      "apogee_km": 424.9994113407529,
      "perigee_km": 416.54292935847207,
      "latitude_deg": -1.388692204224055e-05,
      "longitude_deg": -163.6098859807378,
      "height_km": 423.359128408171,
      "semi_major_axis_km": 6798.908170349612,
      "eccentricity": 0.0006219,
      "inclination_deg": 51.6344,
      "raan_deg": 337.5169,
      "arg_perigee_deg": 244.1555,
      "mean_anomaly_deg": 115.8792,
      "mean_motion_rev_day": 15.48616916
    }
  ]
}